[{"OBJECT_NAME":"TIANPING 2B","OBJECT_ID":"2022-032C","EPOCH":"2026-03-09T22:22:05.849760","MEAN_MOTION":15.01267566,"ECCENTRICITY":0.00208707,"INCLINATION":97.6053,"RA_OF_ASC_NODE":116.3222,"ARG_OF_PERICENTER":130.0797,"MEAN_ANOMALY":230.2261,"EPHEMERIS_TYPE":0,"CLASSIFICATION_TYPE":"U","NORAD_CAT_ID":52155,"ELEMENT_SET_NO":999,"REV_AT_EPOCH":21538,"BSTAR":0.00026542484,"MEAN_MOTION_DOT":3.368e-5,"MEAN_MOTION_DDOT":0},{"OBJECT_NAME":"STARLINK-5571","OBJECT_ID":"2023-013BB","EPOCH":"2026-03-09T23:08:17.314656","MEAN_MOTION":15.03346189,"ECCENTRICITY":5.26e-5,"INCLINATION":43.0018,"RA_OF_ASC_NODE":285.577,"ARG_OF_PERICENTER":229.744,"MEAN_ANOMALY":130.3357,"EPHEMERIS_TYPE":0,"CLASSIFICATION_TYPE":"U","NORAD_CAT_ID":55380,"ELEMENT_SET_NO":999,"REV_AT_EPOCH":17190,"BSTAR":0.00010376908,"MEAN_MOTION_DOT":1.228e-5,"MEAN_MOTION_DDOT":0}]
